start=new Date('2023-01-15T00:00:00.000Z').valueOf();
sats=[{"GP_ID":"223022124","OBJECT_TYPE":"PAYLOAD","COUNTRY_CODE":"US","CENTER_NAME":"EARTH","MEAN_MOTION_DOT":"0.00005308","OBJECT_NAME":"STARLINK-2040","APOAPSIS":"547.927","REF_FRAME":"TEME","ARG_OF_PERICENTER":"85.9636","BSTAR":"0.00037481000000","RA_OF_ASC_NODE":"173.8056","EPOCH":"2023-01-14T18:32:25.804896","ELEMENT_SET_NO":"999","OBJECT_ID":"2021-012AN","FILE":"3745001","REV_AT_EPOCH":"10642","PERIAPSIS":"546.406","NORAD_CAT_ID":"47656","LAUNCH_DATE":"2021-02-16","MEAN_ELEMENT_THEORY":"SGP4","MEAN_MOTION":"15.06415427","DECAY_DATE":null,"PERIOD":"95.591","MEAN_ANOMALY":"274.1479","TLE_LINE2":"2 47656  53.0514 173.8056 0001098  85.9636 274.1479 15.06415427106425","TLE_LINE1":"1 47656U 21012AN  23014.77252089  .00005308  00000-0  37481-3 0  9996","CLASSIFICATION_TYPE":"U","MEAN_MOTION_DDOT":"0.0000000000000","ECCENTRICITY":"0.00010980","TIME_SYSTEM":"UTC","EPHEMERIS_TYPE":"0","RCS_SIZE":"LARGE","SEMIMAJOR_AXIS":"6925.301","SITE":"AFETR","INCLINATION":"53.0514"},{"RCS_SIZE":"LARGE","SEMIMAJOR_AXIS":"6925.346","SITE":"AFETR","INCLINATION":"53.0532","TLE_LINE1":"1 47657U 21012AP  23013.91554734  .00003110  00000-0  22758-3 0  9994","CLASSIFICATION_TYPE":"U","MEAN_MOTION_DDOT":"0.0000000000000","ECCENTRICITY":"0.00012580","TIME_SYSTEM":"UTC","EPHEMERIS_TYPE":"0","PERIOD":"95.592","TLE_LINE2":"2 47657  53.0532 197.6493 0001258  88.1622 271.9511 15.06400944106535","MEAN_ANOMALY":"271.9511","PERIAPSIS":"546.339","REV_AT_EPOCH":"10653","LAUNCH_DATE":"2021-02-16","MEAN_ELEMENT_THEORY":"SGP4","NORAD_CAT_ID":"47657","MEAN_MOTION":"15.06400944","DECAY_DATE":null,"ELEMENT_SET_NO":"999","EPOCH":"2023-01-13T21:58:23.290176","OBJECT_ID":"2021-012AP","FILE":"3743722","APOAPSIS":"548.082","REF_FRAME":"TEME","ARG_OF_PERICENTER":"88.1622","BSTAR":"0.00022758000000","RA_OF_ASC_NODE":"197.6493","MEAN_MOTION_DOT":"0.00003110","OBJECT_NAME":"STARLINK-2041","GP_ID":"222972826","COUNTRY_CODE":"US","OBJECT_TYPE":"PAYLOAD","CENTER_NAME":"EARTH"},{"PERIOD":"95.592","TLE_LINE2":"2 47658  53.0532 193.8129 0001391  84.1976 275.9171 15.06396697106159","MEAN_ANOMALY":"275.9171","MEAN_MOTION":"15.06396697","DECAY_DATE":null,"PERIAPSIS":"546.260","REV_AT_EPOCH":"10615","LAUNCH_DATE":"2021-02-16","MEAN_ELEMENT_THEORY":"SGP4","NORAD_CAT_ID":"47658","SEMIMAJOR_AXIS":"6925.359","RCS_SIZE":"LARGE","INCLINATION":"53.0532","SITE":"AFETR","CLASSIFICATION_TYPE":"U","TLE_LINE1":"1 47658U 21012AQ  23014.77068323  .00003211  00000-0  23437-3 0  9991","TIME_SYSTEM":"UTC","EPHEMERIS_TYPE":"0","ECCENTRICITY":"0.00013910","MEAN_MOTION_DDOT":"0.0000000000000","OBJECT_NAME":"STARLINK-2042","MEAN_MOTION_DOT":"0.00003211","OBJECT_TYPE":"PAYLOAD","COUNTRY_CODE":"US","GP_ID":"223022375","CENTER_NAME":"EARTH","ELEMENT_SET_NO":"999","EPOCH":"2023-01-14T18:29:47.031072","OBJECT_ID":"2021-012AQ","FILE":"3745001","REF_FRAME":"TEME","ARG_OF_PERICENTER":"84.1976","APOAPSIS":"548.187","BSTAR":"0.00023437000000","RA_OF_ASC_NODE":"193.8129"},{"DECAY_DATE":null,"MEAN_MOTION":"15.06394714","PERIAPSIS":"545.884","REV_AT_EPOCH":"10777","LAUNCH_DATE":"2021-02-16","MEAN_ELEMENT_THEORY":"SGP4","NORAD_CAT_ID":"47659","MEAN_ANOMALY":"304.4911","TLE_LINE2":"2 47659  53.0523  75.1821 0001943  55.6261 304.4911 15.06394714107771","PERIOD":"95.592","TIME_SYSTEM":"UTC","EPHEMERIS_TYPE":"0","MEAN_MOTION_DDOT":"0.0000000000000","ECCENTRICITY":"0.00019430","CLASSIFICATION_TYPE":"U","TLE_LINE1":"1 47659U 21012AR  23014.46474867  .00014653  00000-0  10007-2 0  9992","INCLINATION":"53.0523","SITE":"AFETR","SEMIMAJOR_AXIS":"6925.365","RCS_SIZE":"LARGE","CENTER_NAME":"EARTH","COUNTRY_CODE":"US","OBJECT_TYPE":"PAYLOAD","GP_ID":"222994735","OBJECT_NAME":"STARLINK-2043","MEAN_MOTION_DOT":"0.00014653","BSTAR":"0.00100070000000","RA_OF_ASC_NODE":"75.1821","REF_FRAME":"TEME","ARG_OF_PERICENTER":"55.6261","APOAPSIS":"548.575","OBJECT_ID":"2021-012AR","FILE":"3744567","EPOCH":"2023-01-14T11:09:14.285088","ELEMENT_SET_NO":"999"},{"ECCENTRICITY":"0.00020940","MEAN_MOTION_DDOT":"0.0000000000000","TIME_SYSTEM":"UTC","EPHEMERIS_TYPE":"0","TLE_LINE1":"1 47660U 21012AS  23014.41782630  .00001177  00000-0  97949-4 0  9998","CLASSIFICATION_TYPE":"U","SITE":"AFETR","INCLINATION":"53.0545","RCS_SIZE":"LARGE","SEMIMAJOR_AXIS":"6925.362","PERIAPSIS":"545.777","REV_AT_EPOCH":"10790","MEAN_ELEMENT_THEORY":"SGP4","LAUNCH_DATE":"2021-02-16","NORAD_CAT_ID":"47660","DECAY_DATE":null,"MEAN_MOTION":"15.06395672","MEAN_ANOMALY":"311.3798","TLE_LINE2":"2 47660  53.0545  66.0149 0002094  48.7371 311.3798 15.06395672107901","PERIOD":"95.592","BSTAR":"0.00009794900000","RA_OF_ASC_NODE":"66.0149","APOAPSIS":"548.677","REF_FRAME":"TEME","ARG_OF_PERICENTER":"48.7371","OBJECT_ID":"2021-012AS","FILE":"3744567","EPOCH":"2023-01-14T10:01:40.192320","ELEMENT_SET_NO":"999","CENTER_NAME":"EARTH","GP_ID":"222995021","OBJECT_TYPE":"PAYLOAD","COUNTRY_CODE":"US","MEAN_MOTION_DOT":"0.00001177","OBJECT_NAME":"STARLINK-2044"},{"RCS_SIZE":"LARGE","SEMIMAJOR_AXIS":"6925.283","SITE":"AFETR","INCLINATION":"53.0508","CLASSIFICATION_TYPE":"U","TLE_LINE1":"1 47661U 21012AT  23014.47026353  .00006063  00000-0  42532-3 0  9994","ECCENTRICITY":"0.00013650","MEAN_MOTION_DDOT":"0.0000000000000","TIME_SYSTEM":"UTC","EPHEMERIS_TYPE":"0","PERIOD":"95.591","MEAN_ANOMALY":"263.5875","TLE_LINE2":"2 47661  53.0508 175.1589 0001365  96.5270 263.5875 15.06421344106381","REV_AT_EPOCH":"10638","PERIAPSIS":"546.203","LAUNCH_DATE":"2021-02-16","MEAN_ELEMENT_THEORY":"SGP4","NORAD_CAT_ID":"47661","MEAN_MOTION":"15.06421344","DECAY_DATE":null,"ELEMENT_SET_NO":"999","EPOCH":"2023-01-14T11:17:10.768992","OBJECT_ID":"2021-012AT","FILE":"3744567","APOAPSIS":"548.093","REF_FRAME":"TEME","ARG_OF_PERICENTER":"96.5270","BSTAR":"0.00042532000000","RA_OF_ASC_NODE":"175.1589","MEAN_MOTION_DOT":"0.00006063","OBJECT_NAME":"STARLINK-2051","GP_ID":"222995020","OBJECT_TYPE":"PAYLOAD","COUNTRY_CODE":"US","CENTER_NAME":"EARTH"},{"MEAN_ANOMALY":"288.9419","TLE_LINE2":"2 47662  53.0527 175.2488 0001300  71.1710 288.9419 15.06430525106385","PERIOD":"95.590","MEAN_MOTION":"15.06430525","DECAY_DATE":null,"REV_AT_EPOCH":"10638","PERIAPSIS":"546.220","MEAN_ELEMENT_THEORY":"SGP4","LAUNCH_DATE":"2021-02-16","NORAD_CAT_ID":"47662","INCLINATION":"53.0527","SITE":"AFETR","SEMIMAJOR_AXIS":"6925.255","RCS_SIZE":"LARGE","TIME_SYSTEM":"UTC","EPHEMERIS_TYPE":"0","ECCENTRICITY":"0.00013000","MEAN_MOTION_DDOT":"0.0000000000000","TLE_LINE1":"1 47662U 21012AU  23014.45091429  .00019709  00000-0  13372-2 0  9999","CLASSIFICATION_TYPE":"U","OBJECT_NAME":"STARLINK-2052","MEAN_MOTION_DOT":"0.00019709","CENTER_NAME":"EARTH","OBJECT_TYPE":"PAYLOAD","COUNTRY_CODE":"US","GP_ID":"222994739","OBJECT_ID":"2021-012AU","FILE":"3744567","ELEMENT_SET_NO":"999","EPOCH":"2023-01-14T10:49:18.994656","BSTAR":"0.00133720000000","RA_OF_ASC_NODE":"175.2488","REF_FRAME":"TEME","ARG_OF_PERICENTER":"71.1710","APOAPSIS":"548.020"},{"BSTAR":"0.00030755000000","RA_OF_ASC_NODE":"94.6777","REF_FRAME":"TEME","ARG_OF_PERICENTER":"94.5562","APOAPSIS":"548.223","OBJECT_ID":"2021-012AV","FILE":"3745002","EPOCH":"2023-01-14T15:32:01.235328","ELEMENT_SET_NO":"999","CENTER_NAME":"EARTH","OBJECT_TYPE":"PAYLOAD","COUNTRY_CODE":"US","GP_ID":"223022145","OBJECT_NAME":"STARLINK-2053","MEAN_MOTION_DOT":"0.00004304","TIME_SYSTEM":"UTC","EPHEMERIS_TYPE":"0","ECCENTRICITY":"0.00015050","MEAN_MOTION_DDOT":"0.0000000000000","TLE_LINE1":"1 47663U 21012AV  23014.64723652  .00004304  00000-0  30755-3 0  9991","CLASSIFICATION_TYPE":"U","INCLINATION":"53.0546","SITE":"AFETR","SEMIMAJOR_AXIS":"6925.315","RCS_SIZE":"LARGE","DECAY_DATE":null,"MEAN_MOTION":"15.06410789","REV_AT_EPOCH":"10752","PERIAPSIS":"546.138","LAUNCH_DATE":"2021-02-16","NORAD_CAT_ID":"47663","MEAN_ELEMENT_THEORY":"SGP4","MEAN_ANOMALY":"265.5599","TLE_LINE2":"2 47663  53.0546  94.6777 0001505  94.5562 265.5599 15.06410789107520","PERIOD":"95.591"},{"CLASSIFICATION_TYPE":"U","TLE_LINE1":"1 47664U 21012AW  23014.45185308  .00005338  00000-0  37678-3 0  9990","MEAN_MOTION_DDOT":"0.0000000000000","ECCENTRICITY":"0.00013790","TIME_SYSTEM":"UTC","EPHEMERIS_TYPE":"0","RCS_SIZE":"LARGE","SEMIMAJOR_AXIS":"6925.293","SITE":"AFETR","INCLINATION":"53.0515","REV_AT_EPOCH":"10638","PERIAPSIS":"546.203","NORAD_CAT_ID":"47664","LAUNCH_DATE":"2021-02-16","MEAN_ELEMENT_THEORY":"SGP4","DECAY_DATE":null,"MEAN_MOTION":"15.06418149","PERIOD":"95.591","TLE_LINE2":"2 47664  53.0515 175.2406 0001379  80.2058 279.9087 15.06418149106385","MEAN_ANOMALY":"279.9087","APOAPSIS":"548.113","REF_FRAME":"TEME","ARG_OF_PERICENTER":"80.2058","BSTAR":"0.00037678000000","RA_OF_ASC_NODE":"175.2406","EPOCH":"2023-01-14T10:50:40.106112","ELEMENT_SET_NO":"999","OBJECT_ID":"2021-012AW","FILE":"3744568","GP_ID":"222994759","COUNTRY_CODE":"US","OBJECT_TYPE":"PAYLOAD","CENTER_NAME":"EARTH","MEAN_MOTION_DOT":"0.00005338","OBJECT_NAME":"STARLINK-2054"},{"CLASSIFICATION_TYPE":"U","TLE_LINE1":"1 47665U 21012AX  23014.56474078 -.00001961  00000-0 -11281-3 0  9990","MEAN_MOTION_DDOT":"0.0000000000000","ECCENTRICITY":"0.00029420","EPHEMERIS_TYPE":"0","TIME_SYSTEM":"UTC","RCS_SIZE":"LARGE","SEMIMAJOR_AXIS":"6925.409","SITE":"AFETR","INCLINATION":"53.0481","NORAD_CAT_ID":"47665","LAUNCH_DATE":"2021-02-16","MEAN_ELEMENT_THEORY":"SGP4","PERIAPSIS":"545.237","REV_AT_EPOCH":"10646","DECAY_DATE":null,"MEAN_MOTION":"15.06380241","PERIOD":"95.593","MEAN_ANOMALY":"274.4806","TLE_LINE2":"2 47665  53.0481 169.7928 0002942  85.6519 274.4806 15.06380241106462","APOAPSIS":"549.312","ARG_OF_PERICENTER":"85.6519","REF_FRAME":"TEME","RA_OF_ASC_NODE":"169.7928","BSTAR":"-0.00011281000000","EPOCH":"2023-01-14T13:33:13.603392","ELEMENT_SET_NO":"999","FILE":"3745002","OBJECT_ID":"2021-012AX","GP_ID":"223022385","COUNTRY_CODE":"US","OBJECT_TYPE":"PAYLOAD","CENTER_NAME":"EARTH","MEAN_MOTION_DOT":"-0.00001961","OBJECT_NAME":"STARLINK-2056"}];
